HAWK-5A                 
1 52757U 22057AB  26177.91133743  .00020163  00000+0  33965-3 0  9996
2 52757  97.6611 337.3891 0004807  46.7454 313.4198 15.51725682227856
HAWK-6B                 
1 55324U 23011A   26177.69138983  .00004480  00000+0  19457-3 0  9990
2 55324  40.4995 296.6350 0001343 102.1828 257.9132 15.23012495189296
HAWK-6C                 
1 55326U 23011C   26177.69075795  .00004344  00000+0  18895-3 0  9997
2 55326  40.4978 293.4764 0001987  77.7700 282.3332 15.23005777189304
HAWK-6A                 
1 55327U 23011D   26177.62522197  .00004547  00000+0  19735-3 0  9993
2 55327  40.4993 295.4841 0001592  70.9092 289.1890 15.23009944189293
HAWK-7A                 
1 56191U 23054P   26177.93729135  .00005849  00000+0  22035-3 0  9998
2 56191  97.2697  65.0269 0003526  34.8664 325.2806 15.27457266178512
HAWK-7B                 
1 56193U 23054R   26177.93721934  .00005922  00000+0  22308-3 0  9994
2 56193  97.2724  63.2943 0003150  50.9210 309.2309 15.27455776178517
HAWK-7C                 
1 56200U 23054Y   26177.93710228  .00005795  00000+0  21835-3 0  9999
2 56200  97.2701  64.0598 0002962  41.0862 319.0601 15.27455791178511
